[{"OBJECT_NAME":"FENGYUN 1C DEB","OBJECT_ID":"1999-025CCU","EPOCH":"2026-04-05T11:06:14.355360","MEAN_MOTION":14.74520335,"ECCENTRICITY":0.0275373,"INCLINATION":98.1328,"RA_OF_ASC_NODE":172.5669,"ARG_OF_PERICENTER":86.279,"MEAN_ANOMALY":293.5641,"EPHEMERIS_TYPE":0,"CLASSIFICATION_TYPE":"U","NORAD_CAT_ID":31686,"ELEMENT_SET_NO":999,"REV_AT_EPOCH":99493,"BSTAR":0.0010116,"MEAN_MOTION_DOT":0.00012448,"MEAN_MOTION_DDOT":0},{"OBJECT_NAME":"FENGYUN 1C DEB","OBJECT_ID":"1999-025CCW","EPOCH":"2026-04-01T10:09:18.667008","MEAN_MOTION":14.02376033,"ECCENTRICITY":0.0074663,"INCLINATION":98.9455,"RA_OF_ASC_NODE":148.6139,"ARG_OF_PERICENTER":196.3573,"MEAN_ANOMALY":163.5183,"EPHEMERIS_TYPE":0,"CLASSIFICATION_TYPE":"U","NORAD_CAT_ID":31688,"ELEMENT_SET_NO":999,"REV_AT_EPOCH":96815,"BSTAR":0.0001224323,"MEAN_MOTION_DOT":1.49e-6,"MEAN_MOTION_DDOT":0},{"OBJECT_NAME":"FENGYUN 1C DEB","OBJECT_ID":"1999-025CCZ","EPOCH":"2026-04-03T00:19:31.620288","MEAN_MOTION":14.27387101,"ECCENTRICITY":0.00574575,"INCLINATION":98.8727,"RA_OF_ASC_NODE":186.0484,"ARG_OF_PERICENTER":275.6587,"MEAN_ANOMALY":83.8043,"EPHEMERIS_TYPE":0,"CLASSIFICATION_TYPE":"U","NORAD_CAT_ID":31691,"ELEMENT_SET_NO":999,"REV_AT_EPOCH":65698,"BSTAR":0.0029096538,"MEAN_MOTION_DOT":7.219e-5,"MEAN_MOTION_DDOT":0},{"OBJECT_NAME":"FENGYUN 1C DEB","OBJECT_ID":"1999-025CDA","EPOCH":"2026-04-01T05:35:34.016640","MEAN_MOTION":14.19787567,"ECCENTRICITY":0.00884848,"INCLINATION":99.1788,"RA_OF_ASC_NODE":96.5994,"ARG_OF_PERICENTER":130.8571,"MEAN_ANOMALY":230.0316,"EPHEMERIS_TYPE":0,"CLASSIFICATION_TYPE":"U","NORAD_CAT_ID":31692,"ELEMENT_SET_NO":999,"REV_AT_EPOCH":59762,"BSTAR":0.002422002,"MEAN_MOTION_DOT":5.292e-5,"MEAN_MOTION_DDOT":0},{"OBJECT_NAME":"FENGYUN 1C DEB","OBJECT_ID":"1999-025CDD","EPOCH":"2026-04-04T23:38:55.485888","MEAN_MOTION":14.76476256,"ECCENTRICITY":0.01673622,"INCLINATION":98.2529,"RA_OF_ASC_NODE":186.6846,"ARG_OF_PERICENTER":226.9268,"MEAN_ANOMALY":131.7831,"EPHEMERIS_TYPE":0,"CLASSIFICATION_TYPE":"U","NORAD_CAT_ID":31695,"ELEMENT_SET_NO":999,"REV_AT_EPOCH":67641,"BSTAR":0.0015860117,"MEAN_MOTION_DOT":0.00013869,"MEAN_MOTION_DDOT":0},{"OBJECT_NAME":"FENGYUN 1C DEB","OBJECT_ID":"1999-025CDM","EPOCH":"2026-04-05T07:56:02.595840","MEAN_MOTION":15.13186093,"ECCENTRICITY":0.0006244,"INCLINATION":99.0323,"RA_OF_ASC_NODE":18.2241,"ARG_OF_PERICENTER":296.5402,"MEAN_ANOMALY":193.4928,"EPHEMERIS_TYPE":0,"CLASSIFICATION_TYPE":"U","NORAD_CAT_ID":31714,"ELEMENT_SET_NO":999,"REV_AT_EPOCH":97750,"BSTAR":0.011286,"MEAN_MOTION_DOT":0.00205972,"MEAN_MOTION_DDOT":0},{"OBJECT_NAME":"FENGYUN 1C DEB","OBJECT_ID":"1999-025CDN","EPOCH":"2026-04-04T07:11:44.734848","MEAN_MOTION":14.53312248,"ECCENTRICITY":0.018428,"INCLINATION":99.291,"RA_OF_ASC_NODE":300.2519,"ARG_OF_PERICENTER":143.2147,"MEAN_ANOMALY":218.1858,"EPHEMERIS_TYPE":0,"CLASSIFICATION_TYPE":"U","NORAD_CAT_ID":31715,"ELEMENT_SET_NO":999,"REV_AT_EPOCH":63351,"BSTAR":0.0016589565,"MEAN_MOTION_DOT":8.576e-5,"MEAN_MOTION_DDOT":0},{"OBJECT_NAME":"FENGYUN 1C DEB","OBJECT_ID":"1999-025CDP","EPOCH":"2026-04-05T04:25:27.918624","MEAN_MOTION":14.04187551,"ECCENTRICITY":0.01297983,"INCLINATION":98.5489,"RA_OF_ASC_NODE":352.5499,"ARG_OF_PERICENTER":131.8272,"MEAN_ANOMALY":21.4334,"EPHEMERIS_TYPE":0,"CLASSIFICATION_TYPE":"U","NORAD_CAT_ID":31716,"ELEMENT_SET_NO":999,"REV_AT_EPOCH":95711,"BSTAR":0.0013859765,"MEAN_MOTION_DOT":2.331e-5,"MEAN_MOTION_DDOT":0},{"OBJECT_NAME":"FENGYUN 1C DEB","OBJECT_ID":"1999-025CDT","EPOCH":"2026-04-04T05:59:26.056896","MEAN_MOTION":14.73503052,"ECCENTRICITY":0.00971372,"INCLINATION":99.0503,"RA_OF_ASC_NODE":23.8869,"ARG_OF_PERICENTER":134.1426,"MEAN_ANOMALY":226.7819,"EPHEMERIS_TYPE":0,"CLASSIFICATION_TYPE":"U","NORAD_CAT_ID":31720,"ELEMENT_SET_NO":999,"REV_AT_EPOCH":99892,"BSTAR":0.0013818616,"MEAN_MOTION_DOT":9.627e-5,"MEAN_MOTION_DDOT":0},{"OBJECT_NAME":"FENGYUN 1C DEB","OBJECT_ID":"1999-025CDU","EPOCH":"2026-04-01T21:50:57.499008","MEAN_MOTION":13.73968028,"ECCENTRICITY":0.0316235,"INCLINATION":99.7956,"RA_OF_ASC_NODE":79.3023,"ARG_OF_PERICENTER":259.0417,"MEAN_ANOMALY":130.1023,"EPHEMERIS_TYPE":0,"CLASSIFICATION_TYPE":"U","NORAD_CAT_ID":31721,"ELEMENT_SET_NO":999,"REV_AT_EPOCH":68899,"BSTAR":0.00044166,"MEAN_MOTION_DOT":5.45e-6,"MEAN_MOTION_DDOT":0},{"OBJECT_NAME":"FENGYUN 1C DEB","OBJECT_ID":"1999-025CDX","EPOCH":"2026-04-03T23:08:15.542592","MEAN_MOTION":14.52904044,"ECCENTRICITY":0.01410644,"INCLINATION":97.8549,"RA_OF_ASC_NODE":97.5494,"ARG_OF_PERICENTER":254.1108,"MEAN_ANOMALY":104.4504,"EPHEMERIS_TYPE":0,"CLASSIFICATION_TYPE":"U","NORAD_CAT_ID":31724,"ELEMENT_SET_NO":999,"REV_AT_EPOCH":66119,"BSTAR":0.0047365077,"MEAN_MOTION_DOT":0.00022252,"MEAN_MOTION_DDOT":0},{"OBJECT_NAME":"FENGYUN 1C DEB","OBJECT_ID":"1999-025CDY","EPOCH":"2026-04-02T07:07:18.565824","MEAN_MOTION":12.79526208,"ECCENTRICITY":0.06888574,"INCLINATION":99.1808,"RA_OF_ASC_NODE":294.471,"ARG_OF_PERICENTER":86.4786,"MEAN_ANOMALY":281.4783,"EPHEMERIS_TYPE":0,"CLASSIFICATION_TYPE":"U","NORAD_CAT_ID":31725,"ELEMENT_SET_NO":999,"REV_AT_EPOCH":87895,"BSTAR":0.0025744291,"MEAN_MOTION_DOT":1.563e-5,"MEAN_MOTION_DDOT":0},{"OBJECT_NAME":"FENGYUN 1C DEB","OBJECT_ID":"1999-025CEA","EPOCH":"2026-04-05T14:18:37.100736","MEAN_MOTION":14.38858924,"ECCENTRICITY":0.00289264,"INCLINATION":98.8665,"RA_OF_ASC_NODE":216.2361,"ARG_OF_PERICENTER":8.6161,"MEAN_ANOMALY":8.1259,"EPHEMERIS_TYPE":0,"CLASSIFICATION_TYPE":"U","NORAD_CAT_ID":31727,"ELEMENT_SET_NO":999,"REV_AT_EPOCH":73305,"BSTAR":0.0023881313,"MEAN_MOTION_DOT":7.346e-5,"MEAN_MOTION_DDOT":0},{"OBJECT_NAME":"FENGYUN 1C DEB","OBJECT_ID":"1999-025CEE","EPOCH":"2026-04-05T02:41:03.046848","MEAN_MOTION":14.41648982,"ECCENTRICITY":0.00133,"INCLINATION":99.2963,"RA_OF_ASC_NODE":158.2255,"ARG_OF_PERICENTER":126.3695,"MEAN_ANOMALY":233.8721,"EPHEMERIS_TYPE":0,"CLASSIFICATION_TYPE":"U","NORAD_CAT_ID":31731,"ELEMENT_SET_NO":999,"REV_AT_EPOCH":97463,"BSTAR":0.0021492837,"MEAN_MOTION_DOT":6.964e-5,"MEAN_MOTION_DDOT":0},{"OBJECT_NAME":"FENGYUN 1C DEB","OBJECT_ID":"1999-025CEF","EPOCH":"2026-04-03T00:45:59.990976","MEAN_MOTION":14.12407829,"ECCENTRICITY":0.00388976,"INCLINATION":98.5569,"RA_OF_ASC_NODE":127.8882,"ARG_OF_PERICENTER":288.3561,"MEAN_ANOMALY":71.3384,"EPHEMERIS_TYPE":0,"CLASSIFICATION_TYPE":"U","NORAD_CAT_ID":31732,"ELEMENT_SET_NO":999,"REV_AT_EPOCH":65901,"BSTAR":0.00041533676,"MEAN_MOTION_DOT":7.3e-6,"MEAN_MOTION_DDOT":0},{"OBJECT_NAME":"FENGYUN 1C DEB","OBJECT_ID":"1999-025CEH","EPOCH":"2026-04-05T05:47:18.363264","MEAN_MOTION":14.29310458,"ECCENTRICITY":0.010394,"INCLINATION":98.5064,"RA_OF_ASC_NODE":89.5933,"ARG_OF_PERICENTER":33.5934,"MEAN_ANOMALY":327.1781,"EPHEMERIS_TYPE":0,"CLASSIFICATION_TYPE":"U","NORAD_CAT_ID":31734,"ELEMENT_SET_NO":999,"REV_AT_EPOCH":98072,"BSTAR":0.0006166,"MEAN_MOTION_DOT":1.621e-5,"MEAN_MOTION_DDOT":0}]
