FENGYUN 1C DEB          
1 31686U 99025CCU 26095.46266615  .00012448  00000+0  10116-2 0  9996
2 31686  98.1328 172.5669 0275373  86.2790 293.5641 14.74520335994930
FENGYUN 1C DEB          
1 31688U 99025CCW 26091.42313272  .00000149  00000+0  12243-3 0  9991
2 31688  98.9455 148.6139 0074663 196.3573 163.5183 14.02376033968155
FENGYUN 1C DEB          
1 31691U 99025CCZ 26093.01356042  .00007219  00000+0  29097-2 0  9993
2 31691  98.8727 186.0484 0057457 275.6587  83.8043 14.27387101656986
FENGYUN 1C DEB          
1 31692U 99025CDA 26091.23303260  .00005292  00000+0  24220-2 0  9992
2 31692  99.1788  96.5994 0088484 130.8571 230.0316 14.19787567597623
FENGYUN 1C DEB          
1 31695U 99025CDD 26094.98536442  .00013869  00000+0  15860-2 0  9999
2 31695  98.2529 186.6846 0167362 226.9268 131.7831 14.76476256676416
FENGYUN 1C DEB          
1 31714U 99025CDM 26095.33058560  .00205972  00000+0  11286-1 0  9996
2 31714  99.0323  18.2241 0006244 296.5402 193.4928 15.13186093977507
FENGYUN 1C DEB          
1 31715U 99025CDN 26094.29982332  .00008576  00000+0  16590-2 0  9999
2 31715  99.2910 300.2519 0184280 143.2147 218.1858 14.53312248633518
FENGYUN 1C DEB          
1 31716U 99025CDP 26095.18435091  .00002331  00000+0  13860-2 0  9994
2 31716  98.5489 352.5499 0129798 131.8272  21.4334 14.04187551957116
FENGYUN 1C DEB          
1 31720U 99025CDT 26094.24960714  .00009627  00000+0  13819-2 0  9999
2 31720  99.0503  23.8869 0097137 134.1426 226.7819 14.73503052998927
FENGYUN 1C DEB          
1 31721U 99025CDU 26091.91038772  .00000545  00000+0  44166-3 0  9991
2 31721  99.7956  79.3023 0316235 259.0417 130.1023 13.73968028688990
FENGYUN 1C DEB          
1 31724U 99025CDX 26093.96406878  .00022252  00000+0  47365-2 0  9999
2 31724  97.8549  97.5494 0141064 254.1108 104.4504 14.52904044661190
FENGYUN 1C DEB          
1 31725U 99025CDY 26092.29674266  .00001563  00000+0  25744-2 0  9992
2 31725  99.1808 294.4710 0688857  86.4786 281.4783 12.79526208878955
FENGYUN 1C DEB          
1 31727U 99025CEA 26095.59626274  .00007346  00000+0  23881-2 0  9991
2 31727  98.8665 216.2361 0028926   8.6161   8.1259 14.38858924733059
FENGYUN 1C DEB          
1 31731U 99025CEE 26095.11184082  .00006964  00000+0  21493-2 0  9992
2 31731  99.2963 158.2255 0013300 126.3695 233.8721 14.41648982974634
FENGYUN 1C DEB          
1 31732U 99025CEF 26093.03194434  .00000730  00000+0  41534-3 0  9998
2 31732  98.5569 127.8882 0038897 288.3561  71.3384 14.12407829659019
FENGYUN 1C DEB          
1 31734U 99025CEH 26095.24118476  .00001621  00000+0  61660-3 0  9999
2 31734  98.5064  89.5933 0103940  33.5934 327.1781 14.29310458980725
